IRIDIUM 39              
1 25042U 97069D   25181.59293386  .00000333  00000+0  82009-4 0  9997
2 25042  86.3921 205.3861 0015507 261.1376  98.8072 14.49230171451166
IRIDIUM 38              
1 25043U 97069E   25182.50222284  .00000283  00000+0  86719-4 0  9995
2 25043  86.3955 227.1341 0004012  73.8297 286.3342 14.38125823448275
IRIDIUM 42              
1 25077U 97077A   25181.89902303  .00000254  00000+0  80120-4 0  9997
2 25077  86.3958 233.5740 0003038  87.1412 273.0132 14.36360414443161
IRIDIUM 44              
1 25078U 97077B   25181.81646692  .00000226  00000+0  65192-4 0  9997
2 25078  86.3963 215.5008 0002523  45.5891 314.5515 14.40249444445669
IRIDIUM 45              
1 25104U 97082A   25181.85782491  .00008767  00000+0  31270-3 0  9992
2 25104  86.3574  41.2518 0113332 280.6878  78.1621 15.22719922454121
IRIDIUM 24              
1 25105U 97082B   25182.11899473  .00000316  00000+0  89872-4 0  9996
2 25105  86.3895  74.3919 0012863  40.1219 320.0929 14.42109046445474
IRIDIUM 51              
1 25262U 98018A   25181.87098608  .00023684  00000+0  51435-3 0  9999
2 25262  86.3817  49.0530 0084528 195.8139 164.0475 15.40396716449136
IRIDIUM 57              
1 25273U 98019B   25181.90030974  .00000253  00000+0  80523-4 0  9996
2 25273  86.3980 139.5183 0002345  85.2393 274.9072 14.35900127426969
